[
  {
    "OBJECT_NAME": "DIWATA-2B",
    "OBJECT_ID": "2018-084H",
    "EPOCH": "2025-05-10T20:51:53.635392",
    "MEAN_MOTION": 14.98193638,
    "ECCENTRICITY": 0.0008593,
    "INCLINATION": 98.1009,
    "RA_OF_ASC_NODE": 305.8666,
    "ARG_OF_PERICENTER": 29.223,
    "MEAN_ANOMALY": 330.947,
    "EPHEMERIS_TYPE": 0,
    "CLASSIFICATION_TYPE": "U",
    "NORAD_CAT_ID": 43678,
    "ELEMENT_SET_NO": 999,
    "REV_AT_EPOCH": 35593,
    "BSTAR": 0.00019236,
    "MEAN_MOTION_DOT": 2.22e-05,
    "MEAN_MOTION_DDOT": 0
  },
  {
    "OBJECT_NAME": "ES'HAIL 2",
    "OBJECT_ID": "2018-090A",
    "EPOCH": "2025-05-10T19:45:38.814624",
    "MEAN_MOTION": 1.00274036,
    "ECCENTRICITY": 0.0002251,
    "INCLINATION": 0.0077,
    "RA_OF_ASC_NODE": 311.8542,
    "ARG_OF_PERICENTER": 135.1971,
    "MEAN_ANOMALY": 104.0191,
    "EPHEMERIS_TYPE": 0,
    "CLASSIFICATION_TYPE": "U",
    "NORAD_CAT_ID": 43700,
    "ELEMENT_SET_NO": 999,
    "REV_AT_EPOCH": 2388,
    "BSTAR": 0,
    "MEAN_MOTION_DOT": 1.57e-06,
    "MEAN_MOTION_DDOT": 0
  },
  {
    "OBJECT_NAME": "FOX-1CLIFF (AO-95)",
    "OBJECT_ID": "2018-099N",
    "EPOCH": "2025-05-10T02:35:04.387488",
    "MEAN_MOTION": 15.16681585,
    "ECCENTRICITY": 0.0009361,
    "INCLINATION": 97.4939,
    "RA_OF_ASC_NODE": 188.5389,
    "ARG_OF_PERICENTER": 323.352,
    "MEAN_ANOMALY": 36.7072,
    "EPHEMERIS_TYPE": 0,
    "CLASSIFICATION_TYPE": "U",
    "NORAD_CAT_ID": 43770,
    "ELEMENT_SET_NO": 999,
    "REV_AT_EPOCH": 35193,
    "BSTAR": 0.00054098,
    "MEAN_MOTION_DOT": 0.00010544,
    "MEAN_MOTION_DDOT": 0
  },
  {
    "OBJECT_NAME": "ITASAT",
    "OBJECT_ID": "2018-099AE",
    "EPOCH": "2025-05-10T15:32:08.915424",
    "MEAN_MOTION": 15.12553197,
    "ECCENTRICITY": 0.001302,
    "INCLINATION": 97.4586,
    "RA_OF_ASC_NODE": 185.6613,
    "ARG_OF_PERICENTER": 313.5123,
    "MEAN_ANOMALY": 46.5025,
    "EPHEMERIS_TYPE": 0,
    "CLASSIFICATION_TYPE": "U",
    "NORAD_CAT_ID": 43786,
    "ELEMENT_SET_NO": 999,
    "REV_AT_EPOCH": 35193,
    "BSTAR": 0.00038334,
    "MEAN_MOTION_DOT": 6.634e-05,
    "MEAN_MOTION_DDOT": 0
  },
  {
    "OBJECT_NAME": "JY1SAT (JO-97)",
    "OBJECT_ID": "2018-099AX",
    "EPOCH": "2025-05-10T02:44:15.941760",
    "MEAN_MOTION": 15.20126968,
    "ECCENTRICITY": 0.0006341,
    "INCLINATION": 97.4686,
    "RA_OF_ASC_NODE": 189.4749,
    "ARG_OF_PERICENTER": 242.1602,
    "MEAN_ANOMALY": 117.8991,
    "EPHEMERIS_TYPE": 0,
    "CLASSIFICATION_TYPE": "U",
    "NORAD_CAT_ID": 43803,
    "ELEMENT_SET_NO": 999,
    "REV_AT_EPOCH": 35214,
    "BSTAR": 0.0006067,
    "MEAN_MOTION_DOT": 0.00013066,
    "MEAN_MOTION_DDOT": 0
  },
  {
    "OBJECT_NAME": "UWE-4",
    "OBJECT_ID": "2018-111E",
    "EPOCH": "2025-05-10T13:30:55.946592",
    "MEAN_MOTION": 15.25027647,
    "ECCENTRICITY": 0.0010663,
    "INCLINATION": 97.5927,
    "RA_OF_ASC_NODE": 42.9991,
    "ARG_OF_PERICENTER": 325.3784,
    "MEAN_ANOMALY": 34.6758,
    "EPHEMERIS_TYPE": 0,
    "CLASSIFICATION_TYPE": "U",
    "NORAD_CAT_ID": 43880,
    "ELEMENT_SET_NO": 999,
    "REV_AT_EPOCH": 34905,
    "BSTAR": 0.00068234,
    "MEAN_MOTION_DOT": 0.00017016,
    "MEAN_MOTION_DDOT": 0
  },
  {
    "OBJECT_NAME": "DUCHIFAT-3",
    "OBJECT_ID": "2019-089C",
    "EPOCH": "2025-05-10T20:07:57.943776",
    "MEAN_MOTION": 15.44114112,
    "ECCENTRICITY": 4.4e-05,
    "INCLINATION": 36.9433,
    "RA_OF_ASC_NODE": 183.9414,
    "ARG_OF_PERICENTER": 48.2563,
    "MEAN_ANOMALY": 311.823,
    "EPHEMERIS_TYPE": 0,
    "CLASSIFICATION_TYPE": "U",
    "NORAD_CAT_ID": 44854,
    "ELEMENT_SET_NO": 999,
    "REV_AT_EPOCH": 29834,
    "BSTAR": 0.00080411,
    "MEAN_MOTION_DOT": 0.00037894,
    "MEAN_MOTION_DDOT": 0
  },
  {
    "OBJECT_NAME": "TIANYAN 01",
    "OBJECT_ID": "2019-093C",
    "EPOCH": "2025-05-10T20:32:49.366752",
    "MEAN_MOTION": 14.85540123,
    "ECCENTRICITY": 0.0013048,
    "INCLINATION": 97.7928,
    "RA_OF_ASC_NODE": 207.1272,
    "ARG_OF_PERICENTER": 334.7704,
    "MEAN_ANOMALY": 25.2872,
    "EPHEMERIS_TYPE": 0,
    "CLASSIFICATION_TYPE": "U",
    "NORAD_CAT_ID": 44881,
    "ELEMENT_SET_NO": 999,
    "REV_AT_EPOCH": 29166,
    "BSTAR": 0.00013423,
    "MEAN_MOTION_DOT": 1.108e-05,
    "MEAN_MOTION_DDOT": 0
  },
  {
    "OBJECT_NAME": "RS-44 & BREEZE-KM R/B",
    "OBJECT_ID": "2019-096E",
    "EPOCH": "2025-05-10T16:32:44.643840",
    "MEAN_MOTION": 12.79740384,
    "ECCENTRICITY": 0.0217423,
    "INCLINATION": 82.5215,
    "RA_OF_ASC_NODE": 247.1347,
    "ARG_OF_PERICENTER": 5.7746,
    "MEAN_ANOMALY": 354.5785,
    "EPHEMERIS_TYPE": 0,
    "CLASSIFICATION_TYPE": "U",
    "NORAD_CAT_ID": 44909,
    "ELEMENT_SET_NO": 999,
    "REV_AT_EPOCH": 25091,
    "BSTAR": -2.1464e-05,
    "MEAN_MOTION_DOT": 6e-08,
    "MEAN_MOTION_DDOT": 0
  },
  {
    "OBJECT_NAME": "SALSAT",
    "OBJECT_ID": "2020-068K",
    "EPOCH": "2025-05-10T10:47:34.659744",
    "MEAN_MOTION": 15.22318161,
    "ECCENTRICITY": 0.0009444,
    "INCLINATION": 97.8582,
    "RA_OF_ASC_NODE": 107.0999,
    "ARG_OF_PERICENTER": 266.4145,
    "MEAN_ANOMALY": 93.601,
    "EPHEMERIS_TYPE": 0,
    "CLASSIFICATION_TYPE": "U",
    "NORAD_CAT_ID": 46495,
    "ELEMENT_SET_NO": 999,
    "REV_AT_EPOCH": 25394,
    "BSTAR": 0.00033219,
    "MEAN_MOTION_DOT": 7.59e-05,
    "MEAN_MOTION_DDOT": 0
  },
  {
    "OBJECT_NAME": "LEDSAT",
    "OBJECT_ID": "2021-073D",
    "EPOCH": "2025-05-10T17:05:20.467680",
    "MEAN_MOTION": 15.56881037,
    "ECCENTRICITY": 0.0011851,
    "INCLINATION": 97.391,
    "RA_OF_ASC_NODE": 211.0902,
    "ARG_OF_PERICENTER": 183.668,
    "MEAN_ANOMALY": 176.449,
    "EPHEMERIS_TYPE": 0,
    "CLASSIFICATION_TYPE": "U",
    "NORAD_CAT_ID": 49069,
    "ELEMENT_SET_NO": 999,
    "REV_AT_EPOCH": 20678,
    "BSTAR": 0.00080335,
    "MEAN_MOTION_DOT": 0.00058115,
    "MEAN_MOTION_DDOT": 0
  },
  {
    "OBJECT_NAME": "XW-3 (CAS-9)",
    "OBJECT_ID": "2021-131B",
    "EPOCH": "2025-05-10T21:34:34.436352",
    "MEAN_MOTION": 14.40777356,
    "ECCENTRICITY": 0.0003577,
    "INCLINATION": 98.5088,
    "RA_OF_ASC_NODE": 220.4001,
    "ARG_OF_PERICENTER": 209.0042,
    "MEAN_ANOMALY": 151.0948,
    "EPHEMERIS_TYPE": 0,
    "CLASSIFICATION_TYPE": "U",
    "NORAD_CAT_ID": 50466,
    "ELEMENT_SET_NO": 999,
    "REV_AT_EPOCH": 17717,
    "BSTAR": 0.00020852,
    "MEAN_MOTION_DOT": 6.23e-06,
    "MEAN_MOTION_DDOT": 0
  },
  {
    "OBJECT_NAME": "STRATOSAT-TK 1 (RS52S)",
    "OBJECT_ID": "2023-091B",
    "EPOCH": "2025-05-10T20:49:38.119584",
    "MEAN_MOTION": 15.38053482,
    "ECCENTRICITY": 0.0009191,
    "INCLINATION": 97.5555,
    "RA_OF_ASC_NODE": 193.4388,
    "ARG_OF_PERICENTER": 67.3846,
    "MEAN_ANOMALY": 292.8369,
    "EPHEMERIS_TYPE": 0,
    "CLASSIFICATION_TYPE": "U",
    "NORAD_CAT_ID": 57167,
    "ELEMENT_SET_NO": 999,
    "REV_AT_EPOCH": 10344,
    "BSTAR": 0.00092984,
    "MEAN_MOTION_DOT": 0.00034896,
    "MEAN_MOTION_DDOT": 0
  },
  {
    "OBJECT_NAME": "UMKA 1 (RS40S)",
    "OBJECT_ID": "2023-091G",
    "EPOCH": "2025-05-10T21:19:51.331584",
    "MEAN_MOTION": 15.15014636,
    "ECCENTRICITY": 0.0016125,
    "INCLINATION": 97.5606,
    "RA_OF_ASC_NODE": 186.429,
    "ARG_OF_PERICENTER": 79.853,
    "MEAN_ANOMALY": 280.452,
    "EPHEMERIS_TYPE": 0,
    "CLASSIFICATION_TYPE": "U",
    "NORAD_CAT_ID": 57172,
    "ELEMENT_SET_NO": 999,
    "REV_AT_EPOCH": 10298,
    "BSTAR": 0.000356,
    "MEAN_MOTION_DOT": 6.605e-05,
    "MEAN_MOTION_DDOT": 0
  }
]