DIWATA-2B               
1 43678U 18084H   25130.86937078  .00002220  00000+0  19236-3 0  9997
2 43678  98.1009 305.8666 0008593  29.2230 330.9470 14.98193638355937
ES'HAIL 2               
1 43700U 18090A   25130.82336591  .00000157  00000+0  00000+0 0  9991
2 43700   0.0077 311.8542 0002251 135.1971 104.0191  1.00274036 23881
FOX-1CLIFF (AO-95)      
1 43770U 18099N   25130.10768967  .00010544  00000+0  54098-3 0  9995
2 43770  97.4939 188.5389 0009361 323.3520  36.7072 15.16681585351935
ITASAT                  
1 43786U 18099AE  25130.64732541  .00006634  00000+0  38334-3 0  9990
2 43786  97.4586 185.6613 0013020 313.5123  46.5025 15.12553197351935
JY1SAT (JO-97)          
1 43803U 18099AX  25130.11407340  .00013066  00000+0  60670-3 0  9993
2 43803  97.4686 189.4749 0006341 242.1602 117.8991 15.20126968352144
UWE-4                   
1 43880U 18111E   25130.56314753  .00017016  00000+0  68234-3 0  9990
2 43880  97.5927  42.9991 0010663 325.3784  34.6758 15.25027647349059
DUCHIFAT-3              
1 44854U 19089C   25130.83886509  .00037894  00000+0  80411-3 0  9997
2 44854  36.9433 183.9414 0000440  48.2563 311.8230 15.44114112298349
TIANYAN 01              
1 44881U 19093C   25130.85612693  .00001108  00000+0  13423-3 0  9993
2 44881  97.7928 207.1272 0013048 334.7704  25.2872 14.85540123291667
RS-44 & BREEZE-KM R/B   
1 44909U 19096E   25130.68940560  .00000006  00000+0 -21464-4 0  9997
2 44909  82.5215 247.1347 0217423   5.7746 354.5785 12.79740384250916
SALSAT                  
1 46495U 20068K   25130.44970671  .00007590  00000+0  33219-3 0  9994
2 46495  97.8582 107.0999 0009444 266.4145  93.6010 15.22318161253945
LEDSAT                  
1 49069U 21073D   25130.71204245  .00058115  00000+0  80335-3 0  9998
2 49069  97.3910 211.0902 0011851 183.6680 176.4490 15.56881037206780
XW-3 (CAS-9)            
1 50466U 21131B   25130.89900968  .00000623  00000+0  20852-3 0  9999
2 50466  98.5088 220.4001 0003577 209.0042 151.0948 14.40777356177174
STRATOSAT-TK 1 (RS52S)  
1 57167U 23091B   25130.86780231  .00034896  00000+0  92984-3 0  9991
2 57167  97.5555 193.4388 0009191  67.3846 292.8369 15.38053482103444
UMKA 1 (RS40S)          
1 57172U 23091G   25130.88878856  .00006605  00000+0  35600-3 0  9999
2 57172  97.5606 186.4290 0016125  79.8530 280.4520 15.15014636102987
